SNAP-3 JIMI             
1 40975U 15058M   26068.63164788  .00007303  00000+0  51665-3 0  9997
2 40975  64.7662 174.4840 0105534  96.5110 264.8035 15.01135599 99270
STARLINK-5454           
1 54774U 22175S   26068.15621151  .00000747  00000+0  65007-4 0  9997
2 54774  53.2177  31.1971 0001548  88.4800 271.6370 15.08837878180057
