[{"OBJECT_NAME":"SNAP-3 JIMI","OBJECT_ID":"2015-058M","EPOCH":"2026-03-09T15:09:34.376832","MEAN_MOTION":15.01135599,"ECCENTRICITY":0.0105534,"INCLINATION":64.7662,"RA_OF_ASC_NODE":174.484,"ARG_OF_PERICENTER":96.511,"MEAN_ANOMALY":264.8035,"EPHEMERIS_TYPE":0,"CLASSIFICATION_TYPE":"U","NORAD_CAT_ID":40975,"ELEMENT_SET_NO":999,"REV_AT_EPOCH":9927,"BSTAR":0.00051665,"MEAN_MOTION_DOT":7.303e-5,"MEAN_MOTION_DDOT":0},{"OBJECT_NAME":"STARLINK-5454","OBJECT_ID":"2022-175S","EPOCH":"2026-03-09T03:44:56.674464","MEAN_MOTION":15.08837878,"ECCENTRICITY":0.00015481,"INCLINATION":53.2177,"RA_OF_ASC_NODE":31.1971,"ARG_OF_PERICENTER":88.48,"MEAN_ANOMALY":271.637,"EPHEMERIS_TYPE":0,"CLASSIFICATION_TYPE":"U","NORAD_CAT_ID":54774,"ELEMENT_SET_NO":999,"REV_AT_EPOCH":18005,"BSTAR":6.5006942e-5,"MEAN_MOTION_DOT":7.47e-6,"MEAN_MOTION_DDOT":0}]
